STARLINK-36749          
1 67734U 26026P   26064.25003472 -.01984734  00000+0 -26665-1 0  9997
2 67734  97.2836 118.6870 0001655  82.9115 162.4336 15.61241897  4607
STARLINK-36691          
1 67735U 26026Q   26064.25003472 -.02003849  00000+0 -20297-1 0  9993
2 67735  97.2838 118.7363 0001384  59.9645 302.2944 15.68351291  4739
STARLINK-36317          
1 67736U 26026R   26064.25003472 -.02002456  00000+0 -20499-1 0  9991
2 67736  97.2840 118.7311 0001400  56.3283 293.7172 15.68091069  4601
STARLINK-36330          
1 67737U 26026S   26064.25003472 -.01998799  00000+0 -20158-1 0  9997
2 67737  97.2839 118.7393 0001352  58.5958 310.9451 15.68448836  4609
STARLINK-36327          
1 67738U 26026T   26064.25003472 -.01997775  00000+0 -19906-1 0  9990
2 67738  97.2839 118.7441 0001485  52.9513 327.6327 15.68737686  4607
STARLINK-36329          
1 67739U 26026U   26064.25003472 -.02005554  00000+0 -19147-1 0  9994
2 67739  97.2838 118.7649 0001703  55.2782  23.6890 15.69779190  4609
STARLINK-36737          
1 67740U 26026V   26064.25003472 -.02003029  00000+0 -19835-1 0  9995
2 67740  97.2839 118.7475 0001515  55.4689 335.4544 15.68896525  4609
STARLINK-36740          
1 67741U 26026W   26064.25003472 -.01993703  00000+0 -23462-1 0  9993
2 67741  97.2837 118.7402 0001406  52.1006 316.4567 15.64630392  4602
STARLINK-36693          
1 67742U 26026X   26064.25003472 -.01992479  00000+0 -22831-1 0  9992
2 67742  97.2839 118.7345 0001337  58.1225 297.1893 15.65295310  4732
STARLINK-36717          
1 67743U 26026Y   26064.25003472 -.02005348  00000+0 -21112-1 0  9995
2 67743  97.2841 118.7509 0001507  57.9546 339.1554 15.67410083  4739
STARLINK-36692          
1 67744U 26026Z   26064.25003472 -.01992283  00000+0 -22046-1 0  9995
2 67744  97.2840 118.7420 0001412  57.4515 317.4053 15.66161222  4603
2026-027A               
1 67746U 26027A   26064.28594618  .00011368  00000+0  56764-3 0  9997
2 67746  97.4902 193.3458 0009854 209.5874 150.4803 15.17609261  3199
