CCSDS_OMM_VERS = 2.0
CREATION_DATE  = 
ORIGINATOR     = 

OBJECT_NAME    = STARLINK-36749
OBJECT_ID      = 2026-026P
CENTER_NAME    = EARTH
REF_FRAME      = TEME
TIME_SYSTEM    = UTC
MEAN_ELEMENT_THEORY = SGP/SGP4

EPOCH          = 2026-03-05T06:00:02.999808
MEAN_MOTION    = 15.61241897
ECCENTRICITY   = .00016554
INCLINATION    = 97.2836
RA_OF_ASC_NODE = 118.6870
ARG_OF_PERICENTER = 82.9115
MEAN_ANOMALY   = 162.4336

EPHEMERIS_TYPE = 0
CLASSIFICATION_TYPE = U
NORAD_CAT_ID   = 67734
ELEMENT_SET_NO = 999
REV_AT_EPOCH   = 460
BSTAR          = -.26665204E-1
MEAN_MOTION_DOT = -.1984734E-1
MEAN_MOTION_DDOT = 0

CCSDS_OMM_VERS = 2.0
CREATION_DATE  = 
ORIGINATOR     = 

OBJECT_NAME    = STARLINK-36691
OBJECT_ID      = 2026-026Q
CENTER_NAME    = EARTH
REF_FRAME      = TEME
TIME_SYSTEM    = UTC
MEAN_ELEMENT_THEORY = SGP/SGP4

EPOCH          = 2026-03-05T06:00:02.999808
MEAN_MOTION    = 15.68351291
ECCENTRICITY   = .00013846
INCLINATION    = 97.2838
RA_OF_ASC_NODE = 118.7363
ARG_OF_PERICENTER = 59.9645
MEAN_ANOMALY   = 302.2944

EPHEMERIS_TYPE = 0
CLASSIFICATION_TYPE = U
NORAD_CAT_ID   = 67735
ELEMENT_SET_NO = 999
REV_AT_EPOCH   = 473
BSTAR          = -.20296728E-1
MEAN_MOTION_DOT = -.2003849E-1
MEAN_MOTION_DDOT = 0

CCSDS_OMM_VERS = 2.0
CREATION_DATE  = 
ORIGINATOR     = 

OBJECT_NAME    = STARLINK-36317
OBJECT_ID      = 2026-026R
CENTER_NAME    = EARTH
REF_FRAME      = TEME
TIME_SYSTEM    = UTC
MEAN_ELEMENT_THEORY = SGP/SGP4

EPOCH          = 2026-03-05T06:00:02.999808
MEAN_MOTION    = 15.68091069
ECCENTRICITY   = .00014009
INCLINATION    = 97.2840
RA_OF_ASC_NODE = 118.7311
ARG_OF_PERICENTER = 56.3283
MEAN_ANOMALY   = 293.7172

EPHEMERIS_TYPE = 0
CLASSIFICATION_TYPE = U
NORAD_CAT_ID   = 67736
ELEMENT_SET_NO = 999
REV_AT_EPOCH   = 460
BSTAR          = -.20498659E-1
MEAN_MOTION_DOT = -.2002456E-1
MEAN_MOTION_DDOT = 0

CCSDS_OMM_VERS = 2.0
CREATION_DATE  = 
ORIGINATOR     = 

OBJECT_NAME    = STARLINK-36330
OBJECT_ID      = 2026-026S
CENTER_NAME    = EARTH
REF_FRAME      = TEME
TIME_SYSTEM    = UTC
MEAN_ELEMENT_THEORY = SGP/SGP4

EPOCH          = 2026-03-05T06:00:02.999808
MEAN_MOTION    = 15.68448836
ECCENTRICITY   = .00013524
INCLINATION    = 97.2839
RA_OF_ASC_NODE = 118.7393
ARG_OF_PERICENTER = 58.5958
MEAN_ANOMALY   = 310.9451

EPHEMERIS_TYPE = 0
CLASSIFICATION_TYPE = U
NORAD_CAT_ID   = 67737
ELEMENT_SET_NO = 999
REV_AT_EPOCH   = 460
BSTAR          = -.20157874E-1
MEAN_MOTION_DOT = -.1998799E-1
MEAN_MOTION_DDOT = 0

CCSDS_OMM_VERS = 2.0
CREATION_DATE  = 
ORIGINATOR     = 

OBJECT_NAME    = STARLINK-36327
OBJECT_ID      = 2026-026T
CENTER_NAME    = EARTH
REF_FRAME      = TEME
TIME_SYSTEM    = UTC
MEAN_ELEMENT_THEORY = SGP/SGP4

EPOCH          = 2026-03-05T06:00:02.999808
MEAN_MOTION    = 15.68737686
ECCENTRICITY   = .00014856
INCLINATION    = 97.2839
RA_OF_ASC_NODE = 118.7441
ARG_OF_PERICENTER = 52.9513
MEAN_ANOMALY   = 327.6327

EPHEMERIS_TYPE = 0
CLASSIFICATION_TYPE = U
NORAD_CAT_ID   = 67738
ELEMENT_SET_NO = 999
REV_AT_EPOCH   = 460
BSTAR          = -.19906421E-1
MEAN_MOTION_DOT = -.1997775E-1
MEAN_MOTION_DDOT = 0

CCSDS_OMM_VERS = 2.0
CREATION_DATE  = 
ORIGINATOR     = 

OBJECT_NAME    = STARLINK-36329
OBJECT_ID      = 2026-026U
CENTER_NAME    = EARTH
REF_FRAME      = TEME
TIME_SYSTEM    = UTC
MEAN_ELEMENT_THEORY = SGP/SGP4

EPOCH          = 2026-03-05T06:00:02.999808
MEAN_MOTION    = 15.69779190
ECCENTRICITY   = .0001703
INCLINATION    = 97.2838
RA_OF_ASC_NODE = 118.7649
ARG_OF_PERICENTER = 55.2782
MEAN_ANOMALY   = 23.6890

EPHEMERIS_TYPE = 0
CLASSIFICATION_TYPE = U
NORAD_CAT_ID   = 67739
ELEMENT_SET_NO = 999
REV_AT_EPOCH   = 460
BSTAR          = -.19147016E-1
MEAN_MOTION_DOT = -.2005554E-1
MEAN_MOTION_DDOT = 0

CCSDS_OMM_VERS = 2.0
CREATION_DATE  = 
ORIGINATOR     = 

OBJECT_NAME    = STARLINK-36737
OBJECT_ID      = 2026-026V
CENTER_NAME    = EARTH
REF_FRAME      = TEME
TIME_SYSTEM    = UTC
MEAN_ELEMENT_THEORY = SGP/SGP4

EPOCH          = 2026-03-05T06:00:02.999808
MEAN_MOTION    = 15.68896525
ECCENTRICITY   = .00015152
INCLINATION    = 97.2839
RA_OF_ASC_NODE = 118.7475
ARG_OF_PERICENTER = 55.4689
MEAN_ANOMALY   = 335.4544

EPHEMERIS_TYPE = 0
CLASSIFICATION_TYPE = U
NORAD_CAT_ID   = 67740
ELEMENT_SET_NO = 999
REV_AT_EPOCH   = 460
BSTAR          = -.1983493E-1
MEAN_MOTION_DOT = -.2003029E-1
MEAN_MOTION_DDOT = 0

CCSDS_OMM_VERS = 2.0
CREATION_DATE  = 
ORIGINATOR     = 

OBJECT_NAME    = STARLINK-36740
OBJECT_ID      = 2026-026W
CENTER_NAME    = EARTH
REF_FRAME      = TEME
TIME_SYSTEM    = UTC
MEAN_ELEMENT_THEORY = SGP/SGP4

EPOCH          = 2026-03-05T06:00:02.999808
MEAN_MOTION    = 15.64630392
ECCENTRICITY   = .00014064
INCLINATION    = 97.2837
RA_OF_ASC_NODE = 118.7402
ARG_OF_PERICENTER = 52.1006
MEAN_ANOMALY   = 316.4567

EPHEMERIS_TYPE = 0
CLASSIFICATION_TYPE = U
NORAD_CAT_ID   = 67741
ELEMENT_SET_NO = 999
REV_AT_EPOCH   = 460
BSTAR          = -.23462093E-1
MEAN_MOTION_DOT = -.1993703E-1
MEAN_MOTION_DDOT = 0

CCSDS_OMM_VERS = 2.0
CREATION_DATE  = 
ORIGINATOR     = 

OBJECT_NAME    = STARLINK-36693
OBJECT_ID      = 2026-026X
CENTER_NAME    = EARTH
REF_FRAME      = TEME
TIME_SYSTEM    = UTC
MEAN_ELEMENT_THEORY = SGP/SGP4

EPOCH          = 2026-03-05T06:00:02.999808
MEAN_MOTION    = 15.65295310
ECCENTRICITY   = .00013374
INCLINATION    = 97.2839
RA_OF_ASC_NODE = 118.7345
ARG_OF_PERICENTER = 58.1225
MEAN_ANOMALY   = 297.1893

EPHEMERIS_TYPE = 0
CLASSIFICATION_TYPE = U
NORAD_CAT_ID   = 67742
ELEMENT_SET_NO = 999
REV_AT_EPOCH   = 473
BSTAR          = -.2283142E-1
MEAN_MOTION_DOT = -.1992479E-1
MEAN_MOTION_DDOT = 0

CCSDS_OMM_VERS = 2.0
CREATION_DATE  = 
ORIGINATOR     = 

OBJECT_NAME    = STARLINK-36717
OBJECT_ID      = 2026-026Y
CENTER_NAME    = EARTH
REF_FRAME      = TEME
TIME_SYSTEM    = UTC
MEAN_ELEMENT_THEORY = SGP/SGP4

EPOCH          = 2026-03-05T06:00:02.999808
MEAN_MOTION    = 15.67410083
ECCENTRICITY   = .00015071
INCLINATION    = 97.2841
RA_OF_ASC_NODE = 118.7509
ARG_OF_PERICENTER = 57.9546
MEAN_ANOMALY   = 339.1554

EPHEMERIS_TYPE = 0
CLASSIFICATION_TYPE = U
NORAD_CAT_ID   = 67743
ELEMENT_SET_NO = 999
REV_AT_EPOCH   = 473
BSTAR          = -.2111172E-1
MEAN_MOTION_DOT = -.2005348E-1
MEAN_MOTION_DDOT = 0

CCSDS_OMM_VERS = 2.0
CREATION_DATE  = 
ORIGINATOR     = 

OBJECT_NAME    = STARLINK-36692
OBJECT_ID      = 2026-026Z
CENTER_NAME    = EARTH
REF_FRAME      = TEME
TIME_SYSTEM    = UTC
MEAN_ELEMENT_THEORY = SGP/SGP4

EPOCH          = 2026-03-05T06:00:02.999808
MEAN_MOTION    = 15.66161222
ECCENTRICITY   = .00014126
INCLINATION    = 97.2840
RA_OF_ASC_NODE = 118.7420
ARG_OF_PERICENTER = 57.4515
MEAN_ANOMALY   = 317.4053

EPHEMERIS_TYPE = 0
CLASSIFICATION_TYPE = U
NORAD_CAT_ID   = 67744
ELEMENT_SET_NO = 999
REV_AT_EPOCH   = 460
BSTAR          = -.22046492E-1
MEAN_MOTION_DOT = -.1992283E-1
MEAN_MOTION_DDOT = 0

CCSDS_OMM_VERS = 2.0
CREATION_DATE  = 
ORIGINATOR     = 

OBJECT_NAME    = 2026-027A
OBJECT_ID      = 2026-027A
CENTER_NAME    = EARTH
REF_FRAME      = TEME
TIME_SYSTEM    = UTC
MEAN_ELEMENT_THEORY = SGP/SGP4

EPOCH          = 2026-03-05T06:51:45.749952
MEAN_MOTION    = 15.17609261
ECCENTRICITY   = .00098547
INCLINATION    = 97.4902
RA_OF_ASC_NODE = 193.3458
ARG_OF_PERICENTER = 209.5874
MEAN_ANOMALY   = 150.4803

EPHEMERIS_TYPE = 0
CLASSIFICATION_TYPE = U
NORAD_CAT_ID   = 67746
ELEMENT_SET_NO = 999
REV_AT_EPOCH   = 319
BSTAR          = .567636E-3
MEAN_MOTION_DOT = .11368E-3
MEAN_MOTION_DDOT = 0

